STARLINK-30122          
1 56688U 23067A   24346.97573907  .00000349  00000+0  40864-4 0  9998
2 56688  43.0009 214.9074 0001085 265.7975  94.2743 15.02538028 87629
STARLINK-30129          
1 56689U 23067B   24347.36462231  .00000180  00000+0  28395-4 0  9998
2 56689  43.0023 212.6717 0001043 274.9143  85.1580 15.02534282 87613
STARLINK-30124          
1 56690U 23067C   24347.02891079  .00002981  00000+0  23577-3 0  9996
2 56690  43.0031 214.4632 0001320 285.7508  74.3189 15.02517223 87568
STARLINK-30036          
1 56692U 23067E   24347.02224633  .00000721  00000+0  68443-4 0  9996
2 56692  43.0029 214.4315 0001152 262.6448  97.4263 15.02537166 86437
STARLINK-30067          
1 56693U 23067F   24347.34797067  .00001144  00000+0  99703-4 0  9991
2 56693  43.0007 212.5762 0001184 263.4400  96.6308 15.02541151 87612
STARLINK-30126          
1 56694U 23067G   24347.35130206  .00000681  00000+0  65475-4 0  9993
2 56694  43.0033 212.5999 0001072 273.8547  86.2173 15.02539388 87611
STARLINK-30121          
1 56695U 23067H   24347.34465272  .00001672  00000+0  13886-3 0  9996
2 56695  43.0020 212.5307 0000880 272.1414  87.9327 15.02520126 87611
STARLINK-30130          
1 56697U 23067K   24347.05209339  .00000905  00000+0  82034-4 0  9996
2 56697  43.0010 213.7915 0001199 272.5204  87.5501 15.02537677 87311
STARLINK-30068          
1 56698U 23067L   24347.32492293  .00000593  00000+0  58942-4 0  9994
2 56698  43.0016 199.4092 0001152 266.5643  93.5068 15.02537999 87506
STARLINK-30127          
1 56699U 23067M   24347.00892720  .00001485  00000+0  12495-3 0  9992
2 56699  43.0026 214.3307 0001209 268.2253  91.8451 15.02534402 87562
STARLINK-30053          
1 56700U 23067N   24347.00560611  .00000593  00000+0  59004-4 0  9993
2 56700  43.0042 214.3038 0001056 267.0659  93.0062 15.02529048 87563
STARLINK-30125          
1 56701U 23067P   24347.33465108  .00000926  00000+0  83572-4 0  9992
2 56701  43.0038 212.4742 0001199 267.2609  92.8096 15.02540103 87610
STARLINK-30117          
1 56702U 23067Q   24346.90593249 -.00000054  00000+0  11039-4 0  9995
2 56702  43.0005 215.2122 0001092 265.5895  94.4822 15.02534403 87541
STARLINK-30132          
1 56703U 23067R   24347.33132584 -.00000284  00000+0 -59297-5 0  9990
2 56703  43.0019 212.4426 0001296 264.3653  95.7041 15.02541200 87616
STARLINK-30066          
1 56704U 23067S   24347.04543602  .00000042  00000+0  18180-4 0  9991
2 56704  43.0028 213.7262 0001095 267.3589  92.7128 15.02533181 87574
STARLINK-30080          
1 56705U 23067T   24347.32160305  .00000171  00000+0  27741-4 0  9994
2 56705  43.0022 199.4484 0001364 269.0681  91.0005 15.02536327 87768
STARLINK-30079          
1 56706U 23067U   24347.32466365  .00000591  00000+0  58809-4 0  9995
2 56706  43.0019 212.3986 0001113 269.9161  90.1553 15.02541012 87610
STARLINK-30070          
1 56707U 23067V   24347.32799483 -.00000030  00000+0  12886-4 0  9990
2 56707  43.0033 212.4221 0001204 264.7166  95.3539 15.02536882 87619
STARLINK-30071          
1 56708U 23067W   24347.31467711  .00000385  00000+0  43598-4 0  9992
2 56708  43.0009 212.3226 0001112 263.2853  96.7863 15.02538883 87610
STARLINK-30085          
1 56709U 23067X   24347.32133493  .00000352  00000+0  41143-4 0  9999
2 56709  43.0019 212.3693 0000898 261.1138  98.9603 15.02536482 87353
STARLINK-6197           
1 56767U 23078A   24347.50985915  .00000334  00000+0  35779-4 0  9997
2 56767  69.9994  64.6169 0002963 268.8076  91.2743 14.98329613 84451
STARLINK-6198           
1 56768U 23078B   24347.56779708 -.00000044  00000+0  40860-5 0  9992
2 56768  70.0000  24.2821 0002793 268.7470  91.3369 14.98330527 85450
STARLINK-5978           
1 56769U 23078C   24347.50150959  .00000656  00000+0  62734-4 0  9999
2 56769  70.0000  64.5868 0003059 269.4414  90.6394 14.98331313 84454
STARLINK-6342           
1 56770U 23078D   24347.37216783  .00000627  00000+0  60342-4 0  9995
2 56770  69.9995  64.9374 0002988 267.8616  92.2201 14.98325072 84436
STARLINK-6339           
1 56771U 23078E   24347.40502112  .00000128  00000+0  18539-4 0  9991
2 56771  69.9990   5.0133 0003454 266.0335  94.0430 14.98333351 85916
STARLINK-6275           
1 56772U 23078F   24347.23029760  .00000587  00000+0  56986-4 0  9993
2 56772  69.9999  65.2465 0003175 271.1387  88.9409 14.98326217 84411
STARLINK-6296           
1 56773U 23078G   24347.46745362 -.00000796  00000+0 -58960-4 0  9990
2 56773  69.9993   4.8371 0002861 267.8757  92.2075 14.98334522 85927
STARLINK-6190           
1 56774U 23078H   24347.35852210  .00000280  00000+0  31887-4 0  9995
2 56774  69.9996  64.8898 0003116 268.4206  91.6596 14.97515739 84437
STARLINK-6292           
1 56775U 23078J   24347.39651499  .00000037  00000+0  10873-4 0  9998
2 56775  69.9995   4.9920 0003000 271.0982  88.9833 14.98325361 85919
STARLINK-6274           
1 56776U 23078K   24347.42178134  .00000681  00000+0  64881-4 0  9996
2 56776  69.9994  24.9666 0002775 265.1440  94.9402 14.98328607 85420
STARLINK-5582           
1 56777U 23078L   24347.38029247  .00000350  00000+0  37158-4 0  9992
2 56777  69.9998  45.0925 0003023 268.7577  91.3235 14.98326793 84927
STARLINK-6304           
1 56778U 23078M   24347.41760880 -.00000612  00000+0 -43535-4 0  9991
2 56778  69.9999  24.9515 0002923 270.4535  89.6289 14.98333690 85421
STARLINK-6231           
1 56779U 23078N   24347.39256037  .00000390  00000+0  40498-4 0  9999
2 56779  69.9996  24.8625 0003355 270.3806  89.6968 14.98330874 85414
STARLINK-5963           
1 56780U 23078P   24347.44301806  .00000213  00000+0  25638-4 0  9995
2 56780  69.9995  44.5301 0003096 269.8978  90.1827 14.98326486 84942
STARLINK-5989           
1 56781U 23078Q   24347.42617729  .00000312  00000+0  33921-4 0  9992
2 56781  70.0003  44.8502 0002851 268.3508  91.7324 14.98331378 84937
STARLINK-6352           
1 56782U 23078R   24347.48019241  .00000099  00000+0  16056-4 0  9996
2 56782  69.9994  24.7676 0003011 268.4003  91.6811 14.98330794 85430
STARLINK-6357           
1 56783U 23078S   24347.53860517  .00000607  00000+0  58657-4 0  9991
2 56783  69.9998  24.5709 0002935 267.7773  92.3050 14.98332133 85443
STARLINK-6354           
1 56784U 23078T   24347.40926124  .00001458  00000+0  12992-3 0  9991
2 56784  69.9996  24.9214 0002809 274.7336  85.3502 14.98340234 85423
STARLINK-5931           
1 56785U 23078U   24347.56804930  .00001340  00000+0  12011-3 0  9991
2 56785  70.0003  44.5438 0003045 269.6139  90.4671 14.98329228 85647
STARLINK-6341           
1 56786U 23078V   24347.40090960  .00000699  00000+0  66345-4 0  9991
2 56786  69.9998  24.8919 0002951 268.6584  91.4237 14.98331485 85424
STARLINK-6326           
1 56787U 23078W   24347.37586485  .00000122  00000+0  18014-4 0  9991
2 56787  69.9996  24.8070 0002900 268.8352  91.2475 14.98329924 85427
STARLINK-6336           
1 56788U 23078X   24347.39673827  .00000437  00000+0  44420-4 0  9990
2 56788  69.9992  24.8777 0003209 269.7934  90.2857 14.98330272 85428
STARLINK-6325           
1 56789U 23078Y   24347.37147614 -.00000708  00000+0 -51523-4 0  9994
2 56789  70.0006   4.9046 0002257 262.0555  98.0348 14.98350333 86582
STARLINK-6345           
1 56790U 23078Z   24347.37981204  .00000295  00000+0  32472-4 0  9998
2 56790  69.9998   4.9344 0002931 270.8985  89.1838 14.98333699 85912
STARLINK-5977           
1 56791U 23078AA  24347.33019768  .00000237  00000+0  27655-4 0  9995
2 56791  69.9999  44.9194 0002940 269.9398  90.1424 14.98331316 84925
STARLINK-6046           
1 56792U 23078AB  24347.37194326  .00002351  00000+0  20482-3 0  9993
2 56792  69.9998  45.0626 0003187 269.1762  90.9032 14.98321486 84928
STARLINK-6052           
1 56793U 23078AC  24347.54715169  .00003399  00000+0  29237-3 0  9997
2 56793  69.9994  44.4696 0003058 269.1925  90.8884 14.98354599 84951
STARLINK-6060           
1 56794U 23078AD  24347.52191010  .00000139  00000+0  19420-4 0  9992
2 56794  69.9995  24.5114 0002997 270.9764  89.1051 14.98327484 85444
STARLINK-6061           
1 56795U 23078AE  24347.36350735  .00000112  00000+0  17220-4 0  9993
2 56795  69.9999  24.7632 0002861 268.1562  91.9269 14.98329434 85428
STARLINK-6049           
1 56796U 23078AF  24347.43035457  .00000283  00000+0  31551-4 0  9995
2 56796  70.0004  44.8651 0002831 267.3934  92.6901 14.98328681 84933
STARLINK-6058           
1 56797U 23078AG  24347.44289415 -.00006291  00000+0 -52022-3 0  9994
2 56797  69.9998  44.9003 0002930 266.0239  94.0585 14.98310822 84931
STARLINK-6068           
1 56798U 23078AH  24347.38421553 -.00000047  00000+0  38942-5 0  9998
2 56798  69.9993  24.8336 0002991 265.8523  94.2294 14.98327399 86098
STARLINK-5953           
1 56799U 23078AJ  24347.40003255  .00001186  00000+0  10934-3 0  9990
2 56799  70.0001  44.7581 0003075 271.7346  88.3460 14.97522425 84934
STARLINK-6036           
1 56800U 23078AK  24347.42200518 -.00000576  00000+0 -40449-4 0  9995
2 56800  70.0001  44.8353 0002892 268.4309  91.6519 14.98333748 84934
STARLINK-6087           
1 56801U 23078AL  24347.37168042  .00004709  00000+0  40209-3 0  9998
2 56801  70.0016  24.7932 0002215 263.2642  96.8265 14.98342157 85427
STARLINK-6070           
1 56802U 23078AM  24347.38855346 -.00000291  00000+0 -16576-4 0  9995
2 56802  69.9995  24.8534 0003017 268.9572  91.1242 14.98328420 85425
STARLINK-6029           
1 56803U 23078AN  24347.40948061 -.00000407  00000+0 -26338-4 0  9992
2 56803  69.9998  44.7915 0002745 272.3947  87.6898 14.98333411 84933
STARLINK-6069           
1 56804U 23078AP  24347.38003997  .00000018  00000+0  93168-5 0  9992
2 56804  69.9995  24.8195 0003053 270.0262  90.0547 14.98328212 86099
STARLINK-6064           
1 56805U 23078AQ  24347.51372185  .00000175  00000+0  22479-4 0  9996
2 56805  69.9996  24.4823 0003061 270.1235  89.9573 14.98330577 85446
